[{"OBJECT_NAME":"GHGSAT-C12","OBJECT_ID":"2025-135B","EPOCH":"2026-03-09T21:42:54.844416","MEAN_MOTION":15.19558972,"ECCENTRICITY":0.0005838,"INCLINATION":97.4617,"RA_OF_ASC_NODE":184.7149,"ARG_OF_PERICENTER":147.3031,"MEAN_ANOMALY":212.8566,"EPHEMERIS_TYPE":0,"CLASSIFICATION_TYPE":"U","NORAD_CAT_ID":64529,"ELEMENT_SET_NO":999,"REV_AT_EPOCH":3974,"BSTAR":0.00022956142,"MEAN_MOTION_DOT":4.815e-5,"MEAN_MOTION_DDOT":0},{"OBJECT_NAME":"FLOCK 4H-1","OBJECT_ID":"2025-276AQ","EPOCH":"2026-03-09T15:24:19.827360","MEAN_MOTION":15.19357425,"ECCENTRICITY":0.0001009,"INCLINATION":97.4247,"RA_OF_ASC_NODE":143.9566,"ARG_OF_PERICENTER":342.9281,"MEAN_ANOMALY":17.1919,"EPHEMERIS_TYPE":0,"CLASSIFICATION_TYPE":"U","NORAD_CAT_ID":66704,"ELEMENT_SET_NO":999,"REV_AT_EPOCH":1531,"BSTAR":0.00035145,"MEAN_MOTION_DOT":7.365e-5,"MEAN_MOTION_DDOT":0}]
